NORAD_CAT_ID,OBJECT_NAME,OBJECT_TYPE,EPOCH,MEAN_MOTION,ECCENTRICITY,INCLINATION,RA_OF_ASC_NODE,ARG_OF_PERICENTER,MEAN_ANOMALY,BSTAR,MEAN_MOTION_DOT,MEAN_MOTION_DDOT,TLE_LINE0,TLE_LINE1,TLE_LINE2,SEMIMAJOR_AXIS,PERIOD,APOGEE,PERIGEE,DECAYED
27216,PSLV DEB,DEBRIS,2021-03-23 23:41:43,15.04580457,0.0030458,98.2425,95.6128,255.7601,165.6505,0.00021306,2.947e-05,0.0,0 PSLV DEB,1 27216U 01049FL  21082.98731226  .00002947  00000-0  21306-3 0  9990,2 27216  98.2425  95.6128 0030458 255.7601 165.6505 15.04580457 44170,6930.931,95.708,573.906,531.686,0.0
27216,PSLV DEB,DEBRIS,2021-03-24 19:20:52,15.04585373,0.0030399999999999997,98.2428,96.4864,252.80700000000002,281.2037,0.00020613,2.849e-05,0.0,0 PSLV DEB,1 27216U 01049FL  21083.80616854  .00002849  00000-0  20613-3 0  9992,2 27216  98.2428  96.4864 0030400 252.8070 281.2037 15.04585373 44294,6930.916,95.70700000000001,573.851,531.711,0.0
27216,PSLV DEB,DEBRIS,2021-03-24 23:29:58,15.04585576,0.0030394000000000003,98.2428,96.6709,252.204,138.1989,0.00018815,2.594e-05,0.0,0 PSLV DEB,1 27216U 01049FL  21083.97915288  .00002594  00000-0  18815-3 0  9991,2 27216  98.2428  96.6709 0030394 252.2040 138.1989 15.04585576 44322,6930.915,95.70700000000001,573.846,531.714,0.0
27216,PSLV DEB,DEBRIS,2021-03-26 05:56:31,15.04593201,0.0030353000000000003,98.243,98.0238,247.6287,169.0148,0.00019075,2.632e-05,0.0,0 PSLV DEB,1 27216U 01049FL  21085.24758191  .00002632  00000-0  19075-3 0  9993,2 27216  98.2430  98.0238 0030353 247.6287 169.0148 15.04593201 44508,6930.892,95.70700000000001,573.794,531.719,0.0
27216,PSLV DEB,DEBRIS,2021-03-26 23:22:55,15.045975,0.003032,98.2428,98.7988,245.0654,145.1746,0.00019545,2.699e-05,0.0,0 PSLV DEB,1 27216U 01049FL  21085.97424902  .00002699  00000-0  19545-3 0  9998,2 27216  98.2428  98.7988 0030320 245.0654 145.1746 15.04597500 44626,6930.878000000002,95.70700000000001,573.758,531.729,0.0
27216,PSLV DEB,DEBRIS,2021-03-27 07:16:15,15.04598798,0.0030308,98.2428,99.1494,243.8809,125.7155,0.00018566,2.56e-05,0.0,0 PSLV DEB,1 27216U 01049FL  21086.30295531  .00002560  00000-0  18566-3 0  9999,2 27216  98.2428  99.1494 0030308 243.8809 125.7155 15.04598798 44669,6930.874,95.70700000000001,573.746,531.7330000000002,0.0
27216,PSLV DEB,DEBRIS,2021-03-27 12:41:40,15.04599794,0.0030298,98.2427,99.3903,243.0841,269.809,0.00018034,2.484e-05,0.0,0 PSLV DEB,1 27216U 01049FL  21086.52893870  .00002484  00000-0  18034-3 0  9998,2 27216  98.2427  99.3903 0030298 243.0841 269.8090 15.04599794 44701,6930.871,95.70700000000001,573.736,531.737,0.0
27216,PSLV DEB,DEBRIS,2021-03-27 23:19:22,15.04601874,0.003029,98.2427,99.8626,241.5023,148.6104,0.00017684,2.435e-05,0.0,0 PSLV DEB,1 27216U 01049FL  21086.97178397  .00002435  00000-0  17684-3 0  9993,2 27216  98.2427  99.8626 0030290 241.5023 148.6104 15.04601874 44775,6930.865,95.706,573.724,531.736,0.0
27216,PSLV DEB,DEBRIS,2021-03-28 12:37:50,15.04604296,0.0030276,98.2427,100.454,239.50599999999997,272.1917,0.00016858,2.318e-05,0.0,0 PSLV DEB,1 27216U 01049FL  21087.52627461  .00002318  00000-0  16858-3 0  9998,2 27216  98.2427 100.4540 0030276 239.5060 272.1917 15.04604296 44856,6930.858,95.706,573.706,531.739,0.0
27216,PSLV DEB,DEBRIS,2021-03-28 14:06:47,15.04604585,0.0030277,98.2427,100.5199,239.2795,246.824,0.00016854,2.317e-05,0.0,0 PSLV DEB,1 27216U 01049FL  21087.58805020  .00002317  00000-0  16854-3 0  9998,2 27216  98.2427 100.5199 0030277 239.2795 246.8240 15.04604585 44869,6930.857,95.706,573.706,531.737,0.0
27216,PSLV DEB,DEBRIS,2021-03-28 23:15:42,15.04605843,0.0030275,98.2427,100.9265,237.9175,151.6458,0.00015895,2.181e-05,0.0,0 PSLV DEB,1 27216U 01049FL  21087.96923810  .00002181  00000-0  15895-3 0  9991,2 27216  98.2427 100.9265 0030275 237.9175 151.6458 15.04605843 44921,6930.853,95.706,573.701,531.735,0.0
27216,PSLV DEB,DEBRIS,2021-03-29 19:03:14,15.04608361,0.0030271,98.2428,101.806,234.965,298.774,0.00013813,1.886e-05,0.0,0 PSLV DEB,1 27216U 01049FL  21088.79391481  .00001886  00000-0  13813-3 0  9995,2 27216  98.2428 101.8060 0030271 234.9650 298.7740 15.04608361 45045,6930.845,95.706,573.69,531.73,0.0
27216,PSLV DEB,DEBRIS,2021-03-30 12:30:42,15.04610681,0.0030278,98.2428,102.5819,232.3623,279.0418,0.00012683,1.726e-05,0.0,0 PSLV DEB,1 27216U 01049FL  21089.52132691  .00001726  00000-0  12683-3 0  9990,2 27216  98.2428 102.5819 0030278 232.3623 279.0418 15.04610681 45158,6930.8380000000025,95.706,573.688,531.7180000000002,0.0
27216,PSLV DEB,DEBRIS,2021-03-31 05:40:08,15.04612358,0.0030305999999999996,98.2428,103.3444,229.8129,191.4204,0.00011207,1.517e-05,0.0,0 PSLV DEB,1 27216U 01049FL  21090.23620664  .00001517  00000-0  11207-3 0  9991,2 27216  98.2428 103.3444 0030306 229.8129 191.4204 15.04612358 45259,6930.833000000001,95.706,573.702,531.693,0.0
27216,PSLV DEB,DEBRIS,2021-04-01 06:59:03,15.04615937,0.0030443000000000002,98.2429,104.4693,226.3543,144.8254,0.00011837,1.606e-05,0.0,0 PSLV DEB,1 27216U 01049FL  21091.29101199  .00001606  00000-0  11837-3 0  9993,2 27216  98.2429 104.4693 0030443 226.3543 144.8254 15.04615937 45413,6930.821999999999,95.705,573.786,531.587,0.0
27216,PSLV DEB,DEBRIS,2021-04-01 13:53:49,15.04617026,0.0030458,98.2428,104.7765,225.358,265.0573,0.00011812,1.603e-05,0.0,0 PSLV DEB,1 27216U 01049FL  21091.57905084  .00001603  00000-0  11812-3 0  9999,2 27216  98.2428 104.7765 0030458 225.3580 265.0573 15.04617026 45467,6930.819,95.705,573.793,531.5740000000002,0.0
27216,PSLV DEB,DEBRIS,2021-04-02 12:20:13,15.04618819,0.0030513000000000003,98.2426,105.7736,222.1144,289.6603,0.00010146,1.367e-05,0.0,0 PSLV DEB,1 27216U 01049FL  21092.51403984  .00001367  00000-0  10146-3 0  9992,2 27216  98.2426 105.7736 0030513 222.1144 289.6603 15.04618819 45600,6930.813,95.705,573.826,531.53,0.0
27216,PSLV DEB,DEBRIS,2021-04-02 13:49:12,15.04618987,0.0030518,98.2426,105.8395,221.9018,264.4017,0.00010109,1.361e-05,0.0,0 PSLV DEB,1 27216U 01049FL  21092.57583755  .00001361  00000-0  10109-3 0  9996,2 27216  98.2426 105.8395 0030518 221.9018 264.4017 15.04618987 45611,6930.812,95.705,573.8290000000002,531.526,0.0
27216,PSLV DEB,DEBRIS,2021-04-02 20:11:45,15.04620069,0.0030535000000000002,98.2425,106.1228,220.9903,263.3888,0.00010433,1.407e-05,0.0,0 PSLV DEB,1 27216U 01049FL  21092.84149396  .00001407  00000-0  10433-3 0  9996,2 27216  98.2425 106.1228 0030535 220.9903 263.3888 15.04620069 45652,6930.809,95.705,573.837,531.511,0.0
27216,PSLV DEB,DEBRIS,2021-04-03 12:16:44,15.04621423,0.0030583000000000003,98.2423,106.8375,218.6692,293.3639,9.4981e-05,1.275e-05,0.0,0 PSLV DEB,1 27216U 01049FL  21093.51163194  .00001275  00000-0  94981-4 0  9997,2 27216  98.2423 106.8375 0030583 218.6692 293.3639 15.04621423 45755,6930.805,95.705,573.866,531.474,0.0
27216,PSLV DEB,DEBRIS,2021-04-03 20:08:23,15.04622256,0.0030611,98.2421,107.1867,217.543,267.4868,9.3366e-05,1.252e-05,0.0,0 PSLV DEB,1 27216U 01049FL  21093.83915802  .00001252  00000-0  93366-4 0  9994,2 27216  98.2421 107.1867 0030611 217.5430 267.4868 15.04622256 45800,6930.802,95.705,573.883,531.452,0.0
27216,PSLV DEB,DEBRIS,2021-04-04 13:41:44,15.04623003,0.0030671999999999995,98.242,107.9668,215.0588,269.807,7.7508e-05,1.027e-05,0.0,0 PSLV DEB,1 27216U 01049FL  21094.57065941  .00001027  00000-0  77508-4 0  9996,2 27216  98.2420 107.9668 0030672 215.0588 269.8070 15.04623003 45914,6930.8,95.705,573.923,531.4069999999998,0.0
27216,PSLV DEB,DEBRIS,2021-04-05 12:09:50,15.04624652,0.0030761,98.2418,108.9652,211.9333,300.7302,6.7821e-05,8.900000000000001e-06,0.0,0 PSLV DEB,1 27216U 01049FL  21095.50683344  .00000890  00000-0  67821-4 0  9997,2 27216  98.2418 108.9652 0030761 211.9333 300.7302 15.04624652 46057,6930.795,95.705,573.98,531.34,0.0
27216,PSLV DEB,DEBRIS,2021-04-06 00:29:56,15.04625557,0.0030805999999999997,98.2416,109.5132,210.2178,204.637,6.4552e-05,8.43e-06,0.0,0 PSLV DEB,1 27216U 01049FL  21096.02078721  .00000843  00000-0  64552-4 0  9998,2 27216  98.2416 109.5132 0030806 210.2178 204.6370 15.04625557 46135,6930.7919999999995,95.705,574.008,531.306,0.0
27216,PSLV DEB,DEBRIS,2021-04-06 19:57:58,15.04626696,0.0030896,98.2413,110.3781,207.4674,278.3155,5.7958e-05,7.4999999999999985e-06,0.0,0 PSLV DEB,1 27216U 01049FL  21096.83192220  .00000750  00000-0  57958-4 0  9997,2 27216  98.2413 110.3781 0030896 207.4674 278.3155 15.04626696 46257,6930.7890000000025,95.705,574.067,531.24,0.0
27216,PSLV DEB,DEBRIS,2021-04-07 19:54:58,15.04628603,0.0030991,98.241,111.4423,204.1529,283.6697,5.883100000000001e-05,7.62e-06,0.0,0 PSLV DEB,1 27216U 01049FL  21097.82983858  .00000762  00000-0  58831-4 0  9996,2 27216  98.2410 111.4423 0030991 204.1529 283.6697 15.04628603 46405,6930.783,95.705,574.127,531.169,0.0
27216,PSLV DEB,DEBRIS,2021-04-08 11:59:32,15.04632079,0.0031096,98.241,112.1565,201.9225,312.0154,8.4569e-05,1.128e-05,0.0,0 PSLV DEB,1 27216U 01049FL  21098.49968749  .00001128  00000-0  84569-4 0  9996,2 27216  98.2410 112.1565 0031096 201.9225 312.0154 15.04632079 46503,6930.772,95.704,574.189,531.085,0.0
27216,PSLV DEB,DEBRIS,2021-04-09 11:56:09,15.04633393,0.0031194000000000005,98.2409,113.2202,198.638,315.8826,8.201700000000001e-05,1.092e-05,0.0,0 PSLV DEB,1 27216U 01049FL  21099.49733317  .00001092  00000-0  82017-4 0  9994,2 27216  98.2409 113.2202 0031194 198.6380 315.8826 15.04633393 46657,6930.768,95.704,574.253,531.013,0.0
27216,PSLV DEB,DEBRIS,2021-04-09 19:47:48,15.04633886,0.0031213,98.2409,113.5695,197.5703,289.9847,8.2587e-05,1.1e-05,0.0,0 PSLV DEB,1 27216U 01049FL  21099.82486432  .00001100  00000-0  82587-4 0  9996,2 27216  98.2409 113.5695 0031213 197.5703 289.9847 15.04633886 46702,6930.767,95.704,574.265,530.999,0.0
27216,PSLV DEB,DEBRIS,2021-04-10 00:15:38,15.04634144,0.0031226999999999995,98.2408,113.7678,196.9656,217.4422,8.233200000000001e-05,1.096e-05,0.0,0 PSLV DEB,1 27216U 01049FL  21100.01085935  .00001096  00000-0  82332-4 0  9995,2 27216  98.2408 113.7678 0031227 196.9656 217.4422 15.04634144 46735,6930.766,95.704,574.274,530.988,0.0
